FENGYUN 1C DEB          
1 38793U 99025EUH 17343.60479421  .00001158  00000-0  34611-3 0  9999
2 38793  98.7220  29.7255 0114710 119.7691  35.7178 14.41142494200061
